STARLINK-4631           
1 53786C 22111P   23120.73868056  .00004714  00000-0  29563-3 0  1207
2 53786  53.2152 270.3641 0000894  84.2008 156.8567 15.08831958    12
STARLINK-4743           
1 53787C 22111Q   23120.73520833 -.00007027  00000-0 -44075-3 0  1203
2 53787  53.2152 280.4554 0000899  82.1659  30.1712 15.08838884    13
STARLINK-4666           
1 53789C 22111S   23120.73798611 -.00001497  00000-0 -93914-4 0  1208
2 53789  53.2148 280.3267 0000531  62.1413 125.3796 15.08826840    17
STARLINK-4734           
1 53790C 22111T   23120.73659722 -.00015196  00000-0 -95304-3 0  1204
2 53790  53.2146 280.4896 0000498  86.8798  12.9582 15.08849238    17
STARLINK-4739           
1 53792C 22111V   23120.73173611 -.00007137  00000-0 -44766-3 0  1206
2 53792  53.2144 280.4331 0000290  41.8485  71.6444 15.08836185    11
STARLINK-4728           
1 53793C 22111W   23120.73659722 -.00005847  00000-0 -36676-3 0  1206
2 53793  53.2151 280.3794 0000016   0.4389 154.2993 15.08834696    14
STARLINK-4730           
1 53794C 22111X   23120.72270833  .00483387  00000-0  31351-1 0  1208
2 53794  53.2145 280.5094 0001096  80.9662 323.7367 15.07120617    17
STARLINK-4742           
1 53795C 22111Y   23120.73798611 -.00002201  00000-0 -13809-3 0  1203
2 53795  53.2151 280.2856 0000731  81.0464 126.4975 15.08830438    18
STARLINK-4736           
1 53796C 22111Z   23120.74076389  .00012407  00000-0  77913-3 0  1209
2 53796  53.2155 260.2561 0001209  89.0602 104.0189 15.08774692    15
STARLINK-4723           
1 53797C 22111AA  23120.73520833 -.00004543  00000-0 -28500-3 0  1209
2 53797  53.2154 280.1798 0000407  97.4799 155.0517 15.08831398    15
STARLINK-4712           
1 53798C 22111AB  23120.73520833  .00000395  00000-0  24805-4 0  1204
2 53798  53.2149 280.2188 0000478  70.2573 162.2569 15.08824382    13
STARLINK-4710           
1 53799C 22111AC  23120.73243056  .00000267  00000-0  16727-4 0  1206
2 53799  53.2145 270.5343 0000823  53.6123  18.6005 15.08827634    17
STARLINK-4720           
1 53800C 22111AD  23120.73590278  .00003563  00000-0  22350-3 0  1200
2 53800  53.2144 270.5577 0001010  89.4741 341.5811 15.08826380    10
STARLINK-4715           
1 53801C 22111AE  23120.73173611 -.00000075  00000-0 -46951-5 0  1201
2 53801  53.2147 270.4590 0000327  78.9269  29.5749 15.08827329    13
STARLINK-4726           
1 53802C 22111AF  23120.73868056  .00003111  00000-0  19514-3 0  1201
2 53802  53.2144 270.4670 0000767  76.2426  49.9804 15.08824672    10
STARLINK-4727           
1 53803C 22111AG  23120.73729167  .00009745  00000-0  58442-3 0  1203
2 53803  53.2155 255.7653 0000981  96.0641 245.2023 15.10452084    18
STARLINK-4729           
1 53804C 22111AH  23120.73729167  .00006986  00000-0  43817-3 0  1208
2 53804  53.2152 265.3887 0000839  93.9883  67.0246 15.08824815    17
STARLINK-4763           
1 53805C 22111AJ  23120.73590278  .00000595  00000-0  37304-4 0  1203
2 53805  53.2164 255.6914 0000635  77.0297 296.4619 15.08821251    13
STARLINK-4768           
1 53806C 22111AK  23120.74006944  .00007637  00000-0  47912-3 0  1206
2 53806  53.2160 255.4364 0001105  69.8670  86.4333 15.08813179    14
STARLINK-4749           
1 53818C 22114A   23120.75048611  .00021975  00000-0  11515-2 0  1200
2 53818  53.2181 309.1453 0004131 195.8790 119.7692 15.15257215    10
STARLINK-4738           
1 53819C 22114B   23120.73104167 -.00008667  00000-0 -54360-3 0  1209
2 53819  53.2148 310.8273 0001008  85.0975  14.1550 15.08842117    12
STARLINK-4758           
1 53820C 22114C   23120.73381944  .00006859  00000-0  43031-3 0  1203
2 53820  53.2148 310.8437 0000781  80.1335  19.4510 15.08812756    19
STARLINK-4752           
1 53821C 22114D   23120.73659722  .00003856  00000-0  24175-3 0  1208
2 53821  53.2164 255.4196 0001190  76.3797 315.8001 15.08840531    18
STARLINK-4748           
1 53823C 22114F   23120.73937500  .00010197  00000-0  63953-3 0  1206
2 53823  53.2157 265.5810 0000617 112.2939 165.1052 15.08821352    10
STARLINK-4757           
1 53824C 22114G   23120.73173611 -.00013085  00000-0 -82068-3 0  1201
2 53824  53.2154 310.7359 0000991  80.2818  68.0139 15.08843794    15
STARLINK-4751           
1 53825C 22114H   23120.73451389 -.00008885  00000-0 -55724-3 0  1204
2 53825  53.2147 310.7628 0000400  85.2389  58.1188 15.08841808    18
STARLINK-4756           
1 53826C 22114J   23120.73937500 -.00006754  00000-0 -42362-3 0  1206
2 53826  53.2164 310.5432 0000516  91.0582 178.8532 15.08838176    14
STARLINK-4764           
1 53827C 22114K   23120.73520833 -.00004372  00000-0 -27419-3 0  1204
2 53827  53.2150 310.6812 0000518  83.8336 103.3511 15.08837894    17
STARLINK-4760           
1 53828C 22114L   23120.73173611 -.00014348  00000-0 -89996-3 0  1205
2 53828  53.2162 310.5383 0000579  99.0200 149.4027 15.08844973    18
STARLINK-4759           
1 53829C 22114M   23120.73243056 -.00006171  00000-0 -38703-3 0  1202
2 53829  53.2161 310.6527 0001037  81.7140 110.3979 15.08841088    17
STARLINK-4761           
1 53830C 22114N   23120.73451389 -.00004200  00000-0 -26347-3 0  1206
2 53830  53.2160 310.4473 0000861  72.3224 231.2569 15.08833575    19
STARLINK-4649           
1 53831C 22114P   23120.73798611 -.00014540  00000-0 -91195-3 0  1200
2 53831  53.2163 310.5884 0000637 105.9606 136.3810 15.08845682    14
STARLINK-4747           
1 53832C 22114Q   23120.73868056 -.00064933  00000-0 -40745-2 0  1207
2 53832  53.2156 310.3498 0000579  94.1885 272.1711 15.08880180    10
STARLINK-4771           
1 53833C 22114R   23120.73520833 -.00029066  00000-0 -18224-2 0  1201
2 53833  53.2163 310.4825 0000608 100.0509 187.2082 15.08872881    13
STARLINK-4737           
1 53834C 22114S   23120.73590278 -.00017905  00000-0 -11229-2 0  1209
2 53834  53.2157 310.2830 0001011  88.0954 303.1179 15.08852604    16
STARLINK-4783           
1 53835C 22114T   23120.73798611 -.00007312  00000-0 -45859-3 0  1209
2 53835  53.2168 310.3901 0001062  80.0313 262.4294 15.08839735    11
STARLINK-4778           
1 53836C 22114U   23120.74215278 -.00003977  00000-0 -24941-3 0  1206
2 53836  53.2157 300.7879 0001172  77.5507  82.2853 15.08838102    11
STARLINK-4776           
1 53837C 22114V   23120.74284722 -.00005634  00000-0 -35331-3 0  1204
2 53837  53.2159 310.2903 0001030  72.3223 336.6057 15.08841952    18
STARLINK-4773           
1 53838C 22114W   23120.73729167 -.00009730  00000-0 -61029-3 0  1205
2 53838  53.2157 300.7746 0000996  65.6309  87.8166 15.08841165    18
STARLINK-4784           
1 53839C 22114X   23120.73590278 -.00007676  00000-0 -48145-3 0  1206
2 53839  53.2161 300.8596 0001070  94.4295  11.4169 15.08839025    14
STARLINK-4766           
1 53840C 22114Y   23120.72965278 -.00005690  00000-0 -35685-3 0  1202
2 53840  53.2150 300.7005 0000978  62.9758 103.8159 15.08839369    14
STARLINK-4750           
1 53841C 22114Z   23120.73520833 -.00009759  00000-0 -61211-3 0  1202
2 53841  53.2160 300.7436 0000563  73.0708  89.0772 15.08838841    12
STARLINK-4754           
1 53842C 22114AA  23120.73451389 -.00007493  00000-0 -46991-3 0  1203
2 53842  53.2150 300.5906 0000929  77.3639 161.1065 15.08841732    18
STARLINK-4769           
1 53843C 22114AB  23120.73798611 -.00007744  00000-0 -48571-3 0  1201
2 53843  53.2156 300.6927 0001037  80.2783 116.9922 15.08840302    15
STARLINK-4745           
1 53844C 22114AC  23120.74145833 -.00008914  00000-0 -55910-3 0  1200
2 53844  53.2151 300.4817 0000990  70.5540 245.7193 15.08840498    14
STARLINK-4753           
1 53845C 22114AD  23120.73312500 -.00008674  00000-0 -54401-3 0  1204
2 53845  53.2150 300.6559 0000568  64.0639 146.8187 15.08843121    17
STARLINK-4746           
1 53846C 22114AE  23120.74006944 -.00009399  00000-0 -58949-3 0  1204
2 53846  53.2153 300.4095 0000693  92.0581 256.7097 15.08841863    12
STARLINK-4777           
1 53847C 22114AF  23120.73451389 -.00006124  00000-0 -38408-3 0  1202
2 53847  53.2150 300.5513 0000432  89.8413 168.6604 15.08837248    12
STARLINK-4780           
1 53848C 22114AG  23120.74006944 -.00011355  00000-0 -71221-3 0  1209
2 53848  53.2158 300.3306 0000646  67.4603 321.3661 15.08842681    17
STARLINK-4770           
1 53849C 22114AH  23120.73659722 -.00009270  00000-0 -58152-3 0  1208
2 53849  53.2154 300.4632 0000243  90.0985 219.7894 15.08835460    10
STARLINK-4767           
1 53850C 22114AJ  23120.73243056 -.00003733  00000-0 -23416-3 0  1202
2 53850  53.2154 300.2467 0000474  91.7376 315.6507 15.08835914    15
STARLINK-4755           
1 53851C 22114AK  23120.74076389 -.00005963  00000-0 -37397-3 0  1207
2 53851  53.2154 300.3668 0000744  98.3121 274.2561 15.08839335    12
STARLINK-4797           
1 53852C 22114AL  23120.73729167 -.00284806  00000-0 -17127-1 0  1208
2 53852  53.2153 295.5525 0000853  66.7234 206.6458 15.10648563    12
STARLINK-4794           
1 53853C 22114AM  23120.73520833 -.00008065  00000-0 -50583-3 0  1204
2 53853  53.2160 300.3130 0000907  64.4955 317.9397 15.08838726    10
STARLINK-4800           
1 53854C 22114AN  23120.73381944 -.00008494  00000-0 -53276-3 0  1201
2 53854  53.2152 290.8569 0000379  77.4748  32.0639 15.08837168    11
STARLINK-4703           
1 53855C 22114AP  23120.71715278 -.00005541  00000-0 -34749-3 0  1205
2 53855  53.2155 300.4400 0001136  84.5769 174.4902 15.08839248    16
STARLINK-4795           
1 53856C 22114AQ  23120.73798611 -.00009575  00000-0 -60057-3 0  1202
2 53856  53.2156 290.6796 0000359  87.3385 124.9499 15.08841325    17
STARLINK-4809           
1 53857C 22114AR  23120.73034722 -.00013069  00000-0 -81967-3 0  1205
2 53857  53.2165 300.2140 0000378  84.3116 331.7809 15.08845246    18
STARLINK-4798           
1 53858C 22114AS  23120.73659722 -.00007205  00000-0 -45195-3 0  1207
2 53858  53.2149 290.8058 0001133  91.3348  53.3258 15.08836609    16
